IRIDIUM 150             
1 43257U 18030J   25065.55953148  .00000308  00000+0  10305-3 0  9993
2 43257  86.3969 125.9886 0002137  88.0062 272.1378 14.34218328363132
IRIDIUM 143             
1 43258U 18030K   25065.54050285  .00000237  00000+0  77538-4 0  9996
2 43258  86.3973 126.0710 0002096  83.7583 276.3851 14.34218201363064
IRIDIUM 161             
1 43478U 18047C   25065.60181556  .00000516  00000+0  14747-3 0  9993
2 43478  86.4443 283.8542 0002102  87.3327 272.8115 14.43283289357694
IRIDIUM 152             
1 43479U 18047D   25065.58299117  .00000368  00000+0  12419-3 0  9993
2 43479  86.3918 283.7219 0002186  88.5083 271.6363 14.34218103355463
IRIDIUM 147             
1 43480U 18047E   25065.58933151  .00000240  00000+0  78618-4 0  9991
2 43480  86.3919 283.7161 0001986  94.2861 265.8562 14.34218726355464
IRIDIUM 110             
1 43481U 18047F   25065.59567577  .00000170  00000+0  53532-4 0  9998
2 43481  86.3922 283.7933 0002337  97.1372 263.0090 14.34217918355453
IRIDIUM 162             
1 43482U 18047G   25065.59550464  .00000516  00000+0  14742-3 0  9999
2 43482  86.4442 283.7533 0002430  88.3198 271.8281 14.43285759357684
IRIDIUM 160             
1 43569U 18061A   25065.54150929  .00000035  00000+0  53796-5 0  9998
2 43569  86.3918 252.1621 0002162  96.2679 263.8763 14.34217658346349
